{"type": "FeatureCollection", "features": [ {"type": "Feature", "properties": {"norad_id": 31615, "name": "FENGYUN 1C DEB", "group": "fengyun-1c-debris", "lat": 35.267653806587724, "lon": 42.48357634855063, "alt_km": 808.4188442379309, "timestamp": "2025-12-22T23:36:20.996694+00:00", "meta": {"OBJECT_NAME": "FENGYUN 1C DEB", "OBJECT_ID": "1999-025BZV", "EPOCH": "2025-12-21T08:57:52.591968", "MEAN_MOTION": 14.35488145, "ECCENTRICITY": 0.01666483, "INCLINATION": 99.1375, "RA_OF_ASC_NODE": 47.3142, "ARG_OF_PERICENTER": 291.3444, "MEAN_ANOMALY": 67.0025, "EPHEMERIS_TYPE": 0, "CLASSIFICATION_TYPE": "U", "NORAD_CAT_ID": 31615, "ELEMENT_SET_NO": 999, "REV_AT_EPOCH": 65402, "BSTAR": 0.0021985548, "MEAN_MOTION_DOT": 7.354e-05, "MEAN_MOTION_DDOT": 0}, "tle": {"line1": "1 31615U 99025BZV 25355.37352537  .00007354  00000+0  21986-2 0  9992", "line2": "2 31615  99.1375  47.3142 0166648 291.3444  67.0025 14.35488145654021"}}, "geometry": {"type": "Point", "coordinates": [42.48357634855063, 35.267653806587724]}}, {"type": "Feature", "properties": {"norad_id": 31618, "name": "FENGYUN 1C DEB", "group": "fengyun-1c-debris", "lat": -69.53027054593649, "lon": 167.10003769691997, "alt_km": 717.3566500886409, "timestamp": "2025-12-22T23:36:20.996704+00:00", "meta": {"OBJECT_NAME": "FENGYUN 1C DEB", "OBJECT_ID": "1999-025BZY", "EPOCH": "2025-12-19T16:30:44.127072", "MEAN_MOTION": 14.21030172, "ECCENTRICITY": 0.01569395, "INCLINATION": 99.4436, "RA_OF_ASC_NODE": 137.0992, "ARG_OF_PERICENTER": 306.372, "MEAN_ANOMALY": 52.306, "EPHEMERIS_TYPE": 0, "CLASSIFICATION_TYPE": "U", "NORAD_CAT_ID": 31618, "ELEMENT_SET_NO": 999, "REV_AT_EPOCH": 70363, "BSTAR": 0.0002337886, "MEAN_MOTION_DOT": 5.22e-06, "MEAN_MOTION_DDOT": 0}, "tle": {"line1": "1 31618U 99025BZY 25353.68801073  .00000522  00000+0  23379-3 0  9990", "line2": "2 31618  99.4436 137.0992 0156939 306.3720  52.3060 14.21030172703637"}}, "geometry": {"type": "Point", "coordinates": [167.10003769691997, -69.53027054593649]}}, {"type": "Feature", "properties": {"norad_id": 31619, "name": "FENGYUN 1C DEB", "group": "fengyun-1c-debris", "lat": 77.94166173627801, "lon": 59.38643300041084, "alt_km": 665.66641687213, "timestamp": "2025-12-22T23:36:20.996714+00:00", "meta": {"OBJECT_NAME": "FENGYUN 1C DEB", "OBJECT_ID": "1999-025BZZ", "EPOCH": "2025-12-21T06:45:55.955232", "MEAN_MOTION": 14.86149354, "ECCENTRICITY": 0.0094151, "INCLINATION": 99.071, "RA_OF_ASC_NODE": 189.0401, "ARG_OF_PERICENTER": 268.2208, "MEAN_ANOMALY": 90.8218, "EPHEMERIS_TYPE": 0, "CLASSIFICATION_TYPE": "U", "NORAD_CAT_ID": 31619, "ELEMENT_SET_NO": 999, "REV_AT_EPOCH": 63615, "BSTAR": 0.0037749, "MEAN_MOTION_DOT": 0.00035976, "MEAN_MOTION_DDOT": 0}, "tle": {"line1": "1 31619U 99025BZZ 25355.28189763  .00035976  00000+0  37749-2 0  9990", "line2": "2 31619  99.0710 189.0401 0094151 268.2208  90.8218 14.86149354636153"}}, "geometry": {"type": "Point", "coordinates": [59.38643300041084, 77.94166173627801]}}, {"type": "Feature", "properties": {"norad_id": 31620, "name": "FENGYUN 1C DEB", "group": "fengyun-1c-debris", "lat": 80.87795428340084, "lon": 4.377007698978077, "alt_km": 756.6834167500319, "timestamp": "2025-12-22T23:36:20.996724+00:00", "meta": {"OBJECT_NAME": "FENGYUN 1C DEB", "OBJECT_ID": "1999-025CAA", "EPOCH": "2025-12-18T12:16:26.023584", "MEAN_MOTION": 14.37303737, "ECCENTRICITY": 0.00195289, "INCLINATION": 98.8873, "RA_OF_ASC_NODE": 76.7848, "ARG_OF_PERICENTER": 23.9081, "MEAN_ANOMALY": 336.3007, "EPHEMERIS_TYPE": 0, "CLASSIFICATION_TYPE": "U", "NORAD_CAT_ID": 31620, "ELEMENT_SET_NO": 999, "REV_AT_EPOCH": 65927, "BSTAR": 0.0019950798, "MEAN_MOTION_DOT": 5.921e-05, "MEAN_MOTION_DDOT": 0}, "tle": {"line1": "1 31620U 99025CAA 25352.51141231  .00005921  00000+0  19951-2 0  9995", "line2": "2 31620  98.8873  76.7848 0019528  23.9081 336.3007 14.37303737659274"}}, "geometry": {"type": "Point", "coordinates": [4.377007698978077, 80.87795428340084]}}, {"type": "Feature", "properties": {"norad_id": 31622, "name": "FENGYUN 1C DEB", "group": "fengyun-1c-debris", "lat": 68.59725373015029, "lon": 68.68142423450738, "alt_km": 766.345005209364, "timestamp": "2025-12-22T23:36:20.996734+00:00", "meta": {"OBJECT_NAME": "FENGYUN 1C DEB", "OBJECT_ID": "1999-025CAC", "EPOCH": "2025-12-21T05:38:37.239072", "MEAN_MOTION": 14.3726207, "ECCENTRICITY": 0.0015203, "INCLINATION": 98.8168, "RA_OF_ASC_NODE": 90.2179, "ARG_OF_PERICENTER": 314.9507, "MEAN_ANOMALY": 73.8848, "EPHEMERIS_TYPE": 0, "CLASSIFICATION_TYPE": "U", "NORAD_CAT_ID": 31622, "ELEMENT_SET_NO": 999, "REV_AT_EPOCH": 95894, "BSTAR": 0.0013467, "MEAN_MOTION_DOT": 3.974e-05, "MEAN_MOTION_DDOT": 0}, "tle": {"line1": "1 31622U 99025CAC 25355.23515323  .00003974  00000+0  13467-2 0  9998", "line2": "2 31622  98.8168  90.2179 0015203 314.9507  73.8848 14.37262070958949"}}, "geometry": {"type": "Point", "coordinates": [68.68142423450738, 68.59725373015029]}}, {"type": "Feature", "properties": {"norad_id": 31623, "name": "FENGYUN 1C DEB", "group": "fengyun-1c-debris", "lat": 27.85157032591688, "lon": 30.697313404062072, "alt_km": 1095.1237077579408, "timestamp": "2025-12-22T23:36:20.996744+00:00", "meta": {"OBJECT_NAME": "FENGYUN 1C DEB", "OBJECT_ID": "1999-025CAD", "EPOCH": "2025-12-21T08:39:42.357888", "MEAN_MOTION": 13.82603376, "ECCENTRICITY": 0.0194296, "INCLINATION": 97.6289, "RA_OF_ASC_NODE": 205.32, "ARG_OF_PERICENTER": 342.2032, "MEAN_ANOMALY": 17.2386, "EPHEMERIS_TYPE": 0, "CLASSIFICATION_TYPE": "U", "NORAD_CAT_ID": 31623, "ELEMENT_SET_NO": 999, "REV_AT_EPOCH": 58039, "BSTAR": 0.00033865403, "MEAN_MOTION_DOT": 3.92e-06, "MEAN_MOTION_DDOT": 0}, "tle": {"line1": "1 31623U 99025CAD 25355.36090692  .00000392  00000+0  33865-3 0  9996", "line2": "2 31623  97.6289 205.3200 0194296 342.2032  17.2386 13.82603376580398"}}, "geometry": {"type": "Point", "coordinates": [30.697313404062072, 27.85157032591688]}}, {"type": "Feature", "properties": {"norad_id": 31625, "name": "FENGYUN 1C DEB", "group": "fengyun-1c-debris", "lat": 0.19166512507934003, "lon": 83.53416824863072, "alt_km": 609.3921833791046, "timestamp": "2025-12-22T23:36:20.996754+00:00", "meta": {"OBJECT_NAME": "FENGYUN 1C DEB", "OBJECT_ID": "1999-025CAF", "EPOCH": "2025-12-22T12:08:13.819200", "MEAN_MOTION": 14.55412927, "ECCENTRICITY": 0.01487045, "INCLINATION": 98.8054, "RA_OF_ASC_NODE": 83.0602, "ARG_OF_PERICENTER": 346.046, "MEAN_ANOMALY": 31.52, "EPHEMERIS_TYPE": 0, "CLASSIFICATION_TYPE": "U", "NORAD_CAT_ID": 31625, "ELEMENT_SET_NO": 999, "REV_AT_EPOCH": 98535, "BSTAR": 0.00014052116, "MEAN_MOTION_DOT": 6.47e-06, "MEAN_MOTION_DDOT": 0}, "tle": {"line1": "1 31625U 99025CAF 25356.50571550  .00000647  00000+0  14052-3 0  9992", "line2": "2 31625  98.8054  83.0602 0148704 346.0460  31.5200 14.55412927985350"}}, "geometry": {"type": "Point", "coordinates": [83.53416824863072, 0.19166512507934003]}}, {"type": "Feature", "properties": {"norad_id": 31627, "name": "FENGYUN 1C DEB", "group": "fengyun-1c-debris", "lat": -42.07810574220558, "lon": -143.0460333159672, "alt_km": 785.5399628205341, "timestamp": "2025-12-22T23:36:20.996764+00:00", "meta": {"OBJECT_NAME": "FENGYUN 1C DEB", "OBJECT_ID": "1999-025CAH", "EPOCH": "2025-11-26T09:13:22.975680", "MEAN_MOTION": 14.35408996, "ECCENTRICITY": 0.00515931, "INCLINATION": 98.5313, "RA_OF_ASC_NODE": 18.4415, "ARG_OF_PERICENTER": 201.9005, "MEAN_ANOMALY": 157.9975, "EPHEMERIS_TYPE": 0, "CLASSIFICATION_TYPE": "U", "NORAD_CAT_ID": 31627, "ELEMENT_SET_NO": 999, "REV_AT_EPOCH": 64532, "BSTAR": 0.0013473839, "MEAN_MOTION_DOT": 3.885e-05, "MEAN_MOTION_DDOT": 0}, "tle": {"line1": "1 31627U 99025CAH 25330.38429370  .00003885  00000+0  13474-2 0  9997", "line2": "2 31627  98.5313  18.4415 0051593 201.9005 157.9975 14.35408996645325"}}, "geometry": {"type": "Point", "coordinates": [-143.0460333159672, -42.07810574220558]}}, {"type": "Feature", "properties": {"norad_id": 31628, "name": "FENGYUN 1C DEB", "group": "fengyun-1c-debris", "lat": -14.605901315834002, "lon": 31.725921568469342, "alt_km": 821.2211411350727, "timestamp": "2025-12-22T23:36:20.996774+00:00", "meta": {"OBJECT_NAME": "FENGYUN 1C DEB", "OBJECT_ID": "1999-025CAJ", "EPOCH": "2025-12-21T20:41:46.407552", "MEAN_MOTION": 13.86873024, "ECCENTRICITY": 0.01678136, "INCLINATION": 102.2707, "RA_OF_ASC_NODE": 213.5105, "ARG_OF_PERICENTER": 198.3403, "MEAN_ANOMALY": 161.1643, "EPHEMERIS_TYPE": 0, "CLASSIFICATION_TYPE": "U", "NORAD_CAT_ID": 31628, "ELEMENT_SET_NO": 999, "REV_AT_EPOCH": 93426, "BSTAR": 0.0012978244, "MEAN_MOTION_DOT": 1.625e-05, "MEAN_MOTION_DDOT": 0}, "tle": {"line1": "1 31628U 99025CAJ 25355.86234268  .00001625  00000+0  12978-2 0  9996", "line2": "2 31628 102.2707 213.5105 0167813 198.3403 161.1643 13.86873024934260"}}, "geometry": {"type": "Point", "coordinates": [31.725921568469342, -14.605901315834002]}}, {"type": "Feature", "properties": {"norad_id": 31629, "name": "FENGYUN 1C DEB", "group": "fengyun-1c-debris", "lat": 28.838670369656082, "lon": 39.74413622028122, "alt_km": 775.936654490929, "timestamp": "2025-12-22T23:36:20.996785+00:00", "meta": {"OBJECT_NAME": "FENGYUN 1C DEB", "OBJECT_ID": "1999-025CAK", "EPOCH": "2025-12-22T09:53:27.683808", "MEAN_MOTION": 14.14704449, "ECCENTRICITY": 0.01036691, "INCLINATION": 102.1331, "RA_OF_ASC_NODE": 45.773, "ARG_OF_PERICENTER": 2.3467, "MEAN_ANOMALY": 357.816, "EPHEMERIS_TYPE": 0, "CLASSIFICATION_TYPE": "U", "NORAD_CAT_ID": 31629, "ELEMENT_SET_NO": 999, "REV_AT_EPOCH": 94583, "BSTAR": 0.0025054043, "MEAN_MOTION_DOT": 5.011e-05, "MEAN_MOTION_DDOT": 0}, "tle": {"line1": "1 31629U 99025CAK 25356.41212597  .00005011  00000+0  25054-2 0  9992", "line2": "2 31629 102.1331  45.7730 0103669   2.3467 357.8160 14.14704449945834"}}, "geometry": {"type": "Point", "coordinates": [39.74413622028122, 28.838670369656082]}}]}